[{"OBJECT_NAME":"STARLINK-32388","OBJECT_ID":"2024-224F","EPOCH":"2026-03-09T07:09:08.392320","MEAN_MOTION":15.27580355,"ECCENTRICITY":5.145e-5,"INCLINATION":42.9965,"RA_OF_ASC_NODE":167.7919,"ARG_OF_PERICENTER":206.7672,"MEAN_ANOMALY":153.3153,"EPHEMERIS_TYPE":0,"CLASSIFICATION_TYPE":"U","NORAD_CAT_ID":62144,"ELEMENT_SET_NO":999,"REV_AT_EPOCH":7233,"BSTAR":0.0010993082,"MEAN_MOTION_DOT":0.00030112,"MEAN_MOTION_DDOT":0},{"OBJECT_NAME":"ATLAS CENTAUR 2","OBJECT_ID":"1963-047A","EPOCH":"2026-03-09T09:44:46.728096","MEAN_MOTION":14.12066161,"ECCENTRICITY":0.05477336,"INCLINATION":30.3512,"RA_OF_ASC_NODE":197.227,"ARG_OF_PERICENTER":77.7875,"MEAN_ANOMALY":288.3499,"EPHEMERIS_TYPE":0,"CLASSIFICATION_TYPE":"U","NORAD_CAT_ID":694,"ELEMENT_SET_NO":999,"REV_AT_EPOCH":13158,"BSTAR":0.00021795899,"MEAN_MOTION_DOT":1.862e-5,"MEAN_MOTION_DDOT":0}]
